{
  "type": "FeatureCollection",
  "features": [
    {
      "type": "Feature",
      "properties": {
        "norad_id": 36744,
        "name": "COMS 1",
        "group": "weather",
        "lat": 3.658798777600609,
        "lon": 135.01116476701998,
        "alt_km": 35788.01290293105,
        "timestamp": "2025-12-14T18:52:55.141790+00:00",
        "meta_object_name": "COMS 1",
        "meta_object_id": "2010-032A",
        "meta_epoch": "2025-12-13T17:28:57.586656",
        "meta_mean_motion": 1.00272408,
        "meta_eccentricity": 8.53e-05,
        "meta_inclination": 4.3435,
        "meta_ra_of_asc_node": 77.9882,
        "meta_arg_of_pericenter": 189.3563,
        "meta_mean_anomaly": 205.7195,
        "meta_ephemeris_type": 0,
        "meta_classification_type": "U",
        "meta_norad_cat_id": 36744,
        "meta_element_set_no": 999,
        "meta_rev_at_epoch": 4923,
        "meta_bstar": 0,
        "meta_mean_motion_dot": -3.3e-06,
        "meta_mean_motion_ddot": 0,
        "tle_line1": "1 36744U 10032A   25347.72844429 -.00000330  00000+0  00000+0 0  9996",
        "tle_line2": "2 36744   4.3435  77.9882 0000853 189.3563 205.7195  1.00272408 49238"
      },
      "geometry": {
        "type": "Point",
        "coordinates": [
          135.01116476701998,
          3.658798777600609
        ]
      }
    },
    {
      "type": "Feature",
      "properties": {
        "norad_id": 37214,
        "name": "FENGYUN 3B",
        "group": "weather",
        "lat": 14.702924276076187,
        "lon": 26.397107172206276,
        "alt_km": 829.17844492944,
        "timestamp": "2025-12-14T18:52:55.141803+00:00",
        "meta_object_name": "FENGYUN 3B",
        "meta_object_id": "2010-059A",
        "meta_epoch": "2025-12-14T00:39:50.185152",
        "meta_mean_motion": 14.14790202,
        "meta_eccentricity": 0.00220104,
        "meta_inclination": 98.9912,
        "meta_ra_of_asc_node": 28.0138,
        "meta_arg_of_pericenter": 354.2585,
        "meta_mean_anomaly": 116.5873,
        "meta_ephemeris_type": 0,
        "meta_classification_type": "U",
        "meta_norad_cat_id": 37214,
        "meta_element_set_no": 999,
        "meta_rev_at_epoch": 78124,
        "meta_bstar": 5.8046217e-05,
        "meta_mean_motion_dot": 6.7e-07,
        "meta_mean_motion_ddot": 0,
        "tle_line1": "1 37214U 10059A   25348.02766418  .00000067  00000+0  58046-4 0  9997",
        "tle_line2": "2 37214  98.9912  28.0138 0022010 354.2585 116.5873 14.14790202781249"
      },
      "geometry": {
        "type": "Point",
        "coordinates": [
          26.397107172206276,
          14.702924276076187
        ]
      }
    },
    {
      "type": "Feature",
      "properties": {
        "norad_id": 37849,
        "name": "SUOMI NPP",
        "group": "weather",
        "lat": -68.67441997849774,
        "lon": 82.79652931696216,
        "alt_km": 835.3878974394329,
        "timestamp": "2025-12-14T18:52:55.141814+00:00",
        "meta_object_name": "SUOMI NPP",
        "meta_object_id": "2011-061A",
        "meta_epoch": "2025-12-13T23:05:50.997984",
        "meta_mean_motion": 14.19514642,
        "meta_eccentricity": 0.00022859,
        "meta_inclination": 98.7774,
        "meta_ra_of_asc_node": 285.2929,
        "meta_arg_of_pericenter": 118.1001,
        "meta_mean_anomaly": 242.0406,
        "meta_ephemeris_type": 0,
        "meta_classification_type": "U",
        "meta_norad_cat_id": 37849,
        "meta_element_set_no": 999,
        "meta_rev_at_epoch": 73216,
        "meta_bstar": 8.8342267e-05,
        "meta_mean_motion_dot": 1.42e-06,
        "meta_mean_motion_ddot": 0,
        "tle_line1": "1 37849U 11061A   25347.96239581  .00000142  00000+0  88342-4 0  9999",
        "tle_line2": "2 37849  98.7774 285.2929 0002285 118.1001 242.0406 14.19514642732165"
      },
      "geometry": {
        "type": "Point",
        "coordinates": [
          82.79652931696216,
          -68.67441997849774
        ]
      }
    },
    {
      "type": "Feature",
      "properties": {
        "norad_id": 38552,
        "name": "METEOSAT-10 (MSG-3)",
        "group": "weather",
        "lat": -3.4406951531308034,
        "lon": 7.207827018595514,
        "alt_km": 35783.37343839251,
        "timestamp": "2025-12-14T18:52:55.141826+00:00",
        "meta_object_name": "METEOSAT-10 (MSG-3)",
        "meta_object_id": "2012-035B",
        "meta_epoch": "2025-12-13T22:00:41.365152",
        "meta_mean_motion": 1.0027538,
        "meta_eccentricity": 7.474e-05,
        "meta_inclination": 4.2317,
        "meta_ra_of_asc_node": 61.722,
        "meta_arg_of_pericenter": 257.8999,
        "meta_mean_anomaly": 93.5851,
        "meta_ephemeris_type": 0,
        "meta_classification_type": "U",
        "meta_norad_cat_id": 38552,
        "meta_element_set_no": 999,
        "meta_rev_at_epoch": 4899,
        "meta_bstar": 0,
        "meta_mean_motion_dot": 1e-07,
        "meta_mean_motion_ddot": 0,
        "tle_line1": "1 38552U 12035B   25347.91714543  .00000010  00000+0  00000+0 0  9998",
        "tle_line2": "2 38552   4.2317  61.7220 0000747 257.8999  93.5851  1.00275380 48994"
      },
      "geometry": {
        "type": "Point",
        "coordinates": [
          7.207827018595514,
          -3.4406951531308034
        ]
      }
    },
    {
      "type": "Feature",
      "properties": {
        "norad_id": 38771,
        "name": "METOP-B",
        "group": "weather",
        "lat": 62.09897315641677,
        "lon": -124.52107896027178,
        "alt_km": 812.5434676425002,
        "timestamp": "2025-12-14T18:52:55.141838+00:00",
        "meta_object_name": "METOP-B",
        "meta_object_id": "2012-049A",
        "meta_epoch": "2025-12-13T23:45:06.893568",
        "meta_mean_motion": 14.21408871,
        "meta_eccentricity": 0.00029598,
        "meta_inclination": 98.6799,
        "meta_ra_of_asc_node": 37.9272,
        "meta_arg_of_pericenter": 141.4176,
        "meta_mean_anomaly": 218.7213,
        "meta_ephemeris_type": 0,
        "meta_classification_type": "U",
        "meta_norad_cat_id": 38771,
        "meta_element_set_no": 999,
        "meta_rev_at_epoch": 68695,
        "meta_bstar": 0.00010364838,
        "meta_mean_motion_dot": 1.83e-06,
        "meta_mean_motion_ddot": 0,
        "tle_line1": "1 38771U 12049A   25347.98966312  .00000183  00000+0  10365-3 0  9996",
        "tle_line2": "2 38771  98.6799  37.9272 0002959 141.4176 218.7213 14.21408871686959"
      },
      "geometry": {
        "type": "Point",
        "coordinates": [
          -124.52107896027178,
          62.09897315641677
        ]
      }
    },
    {
      "type": "Feature",
      "properties": {
        "norad_id": 39216,
        "name": "INSAT-3D",
        "group": "weather",
        "lat": 1.1416498798183186,
        "lon": 136.41558688657267,
        "alt_km": 35789.032547513736,
        "timestamp": "2025-12-14T18:52:55.141850+00:00",
        "meta_object_name": "INSAT-3D",
        "meta_object_id": "2013-038B",
        "meta_epoch": "2025-12-13T22:37:30.340128",
        "meta_mean_motion": 1.00269512,
        "meta_eccentricity": 0.00013739,
        "meta_inclination": 1.448,
        "meta_ra_of_asc_node": 84.9824,
        "meta_arg_of_pericenter": 165.1103,
        "meta_mean_anomaly": 301.6765,
        "meta_ephemeris_type": 0,
        "meta_classification_type": "U",
        "meta_norad_cat_id": 39216,
        "meta_element_set_no": 999,
        "meta_rev_at_epoch": 4522,
        "meta_bstar": 0,
        "meta_mean_motion_dot": -3.23e-06,
        "meta_mean_motion_ddot": 0,
        "tle_line1": "1 39216U 13038B   25347.94271227 -.00000323  00000+0  00000+0 0  9998",
        "tle_line2": "2 39216   1.4480  84.9824 0001373 165.1103 301.6765  1.00269512 45223"
      },
      "geometry": {
        "type": "Point",
        "coordinates": [
          136.41558688657267,
          1.1416498798183186
        ]
      }
    },
    {
      "type": "Feature",
      "properties": {
        "norad_id": 39260,
        "name": "FENGYUN 3C",
        "group": "weather",
        "lat": -37.96087342307789,
        "lon": -26.952640877906205,
        "alt_km": 853.1774075263829,
        "timestamp": "2025-12-14T18:52:55.141862+00:00",
        "meta_object_name": "FENGYUN 3C",
        "meta_object_id": "2013-052A",
        "meta_epoch": "2025-12-13T22:42:31.869216",
        "meta_mean_motion": 14.15696759,
        "meta_eccentricity": 0.0014357,
        "meta_inclination": 98.4764,
        "meta_ra_of_asc_node": 325.5667,
        "meta_arg_of_pericenter": 192.4922,
        "meta_mean_anomaly": 167.5899,
        "meta_ephemeris_type": 0,
        "meta_classification_type": "U",
        "meta_norad_cat_id": 39260,
        "meta_element_set_no": 999,
        "meta_rev_at_epoch": 63235,
        "meta_bstar": 9.9622269e-05,
        "meta_mean_motion_dot": 1.54e-06,
        "meta_mean_motion_ddot": 0,
        "tle_line1": "1 39260U 13052A   25347.94620219  .00000154  00000+0  99622-4 0  9996",
        "tle_line2": "2 39260  98.4764 325.5667 0014357 192.4922 167.5899 14.15696759632350"
      },
      "geometry": {
        "type": "Point",
        "coordinates": [
          -26.952640877906205,
          -37.96087342307789
        ]
      }
    }
  ]
}